HORYU-4                 
1 41340U 16012D   20063.92981687  .00000459  00000-0  28021-4 0  9998
2 41340  31.0049 283.7668 0013982 182.5533 177.5033 15.01430038222008
E-ST@R-II               
1 41459U 16025D   20064.50336299  .00002350  00000-0  12211-3 0  9996
2 41459  98.0933 169.1104 0165846 204.4850 154.8453 15.06098553211648
AAUSAT 4                
1 41460U 16025E   20064.53145521  .00002210  00000-0  11219-3 0  9999
2 41460  98.0910 171.1145 0154936 194.3190 165.3595 15.08267906211821
DIWATA-1                
1 41463U 98067HT  20064.45567572  .00142837  20644-4  19646-3 0  9995
2 41463  51.6226 321.4833 0002718 172.0943 358.4486 16.05795607221098
BEESAT-4                
1 41619U 16040W   20064.42843899  .00001188  00000-0  52273-4 0  9992
2 41619  97.3334 126.3903 0011139 181.2342 178.8870 15.23731280193400
CANX-7                  
1 41788U 16059F   20064.47954343  .00007415  00000-0  10535-2 0  9993
2 41788  98.2501 149.8043 0025708 258.3888 101.4348 14.76994129184318
RAVAN                   
1 41849U 16067B   20064.23998580  .00000854  00000-0  76664-4 0  9992
2 41849  97.9241 172.3752 0007623 223.3025 136.7598 14.98460380180867
CELTEE 1                
1 41850U 16067C   20064.54085009 -.00000338  00000-0 -24039-4 0  9999
2 41850  97.9192 170.7119 0007811 233.7725 126.2774 14.97128252180806
OPTICUBE 04             
1 41851U 16067D   20064.25314110  .00000178  00000-0  20825-4 0  9995
2 41851  97.9190 170.0944 0007448 235.1423 124.9098 14.96893042180743
AEROCUBE 8D             
1 41852U 16067E   20064.53481314 -.00000378  00000-0 -27638-4 0  9991
2 41852  97.9193 170.2101 0008526 236.3688 123.6720 14.96850763180761
AEROCUBE 8C             
1 41853U 16067F   20064.22968610  .00000538  00000-0  52268-4 0  9990
2 41853  97.9186 169.8149 0008915 236.6423 123.3945 14.96812007180712
PROMETHEUS 2-1          
1 41854U 16067G   20064.22065464  .00000335  00000-0  34305-4 0  9993
2 41854  97.9191 170.0706 0009464 236.8518 123.1795 14.97097663180725
PROMETHEUS 2-3          
1 41855U 16067H   20064.35546564  .00000363  00000-0  36735-4 0  9993
2 41855  97.9195 170.2346 0009608 236.4563 123.5741 14.97107168180747
INS-1B                  
1 41954U 17008G   20064.33738686  .00001085  00000-0  46997-4 0  9998
2 41954  97.3672 130.5700 0007832 319.5366  40.5288 15.24516827169350
BGUSAT                  
1 41999U 17008BD  20064.18597788  .00002086  00000-0  81321-4 0  9998
2 41999  97.3771 133.9997 0006903 332.8616  27.2261 15.27062145168880
DIDO-2                  
1 42000U 17008BE  20064.21661515  .00000734  00000-0  32923-4 0  9998
2 42000  97.3681 130.9876 0007748 342.0439  18.0524 15.24302539168736
PEASSS                  
1 42015U 17008BV  20064.46720283  .00001005  00000-0  42628-4 0  9994
2 42015  97.3699 132.6301 0005727 349.7424  10.3696 15.25379260169345
AL-FARABI 1             
1 42016U 17008BW  20064.41284796  .00001289  00000-0  52691-4 0  9999
2 42016  97.3725 133.4557 0005546 348.9891  11.1225 15.26153173169505
NAYIF-1 (EO-88)         
1 42017U 17008BX  20064.32872802  .00001299  00000-0  53007-4 0  9994
2 42017  97.3719 133.3844 0005585 349.0993  11.0124 15.26191045169513
NSIGHT                  
1 42726U 98067MF  20064.20132080  .00097580  14734-4  29748-3 0  9994
2 42726  51.6290  46.9131 0005432  93.2363 266.9265 15.91916785158811
UCLSAT                  
1 42765U 17036A   20064.39056962  .00001082  00000-0  48466-4 0  9996
2 42765  97.3158 121.3864 0012387  43.1608 317.0597 15.23282260150589
LITUANICASAT-2          
1 42768U 17036D   20064.39972205  .00001824  00000-0  78775-4 0  9996
2 42768  97.3209 121.2203 0015458  32.4987 327.7198 15.23664615149848
AALTO-1                 
1 42775U 17036L   20064.17838354  .00000655  00000-0  31910-4 0  9997
2 42775  97.3138 119.2857 0014751  35.6152 324.6066 15.21684002149663
URSA MAIOR              
1 42776U 17036M   20064.11401770  .00000775  00000-0  37012-4 0  9992
2 42776  97.3150 119.4639 0014574  35.7361 324.4847 15.21850147149664
COMPASS 2               
1 42777U 17036N   20064.41453476  .00001433  00000-0  62690-4 0  9998
2 42777  97.3201 121.6850 0013096  34.5505 325.6581 15.23597205149806
DIAMOND RED             
1 42783U 17036U   20064.40459573  .00000842  00000-0  39078-4 0  9995
2 42783  97.3159 120.7726 0013111  44.4168 315.8118 15.22635377149764
PEGASUS                 
1 42784U 17036V   20064.19776363  .00000950  00000-0  43287-4 0  9998
2 42784  97.3164 120.9289 0012986  44.2196 316.0077 15.22987065149755
DIAMOND GREEN           
1 42785U 17036W   20064.40337269  .00000838  00000-0  38891-4 0  9991
2 42785  97.3162 120.8036 0013022  45.0669 315.1621 15.22637219149836
DIAMOND BLUE            
1 42786U 17036X   20064.13973529  .00000906  00000-0  41818-4 0  9996
2 42786  97.3161 120.5429 0012902  46.1514 314.0787 15.22635189149718
NUDTSAT                 
1 42787U 17036Y   20064.60395300  .00001484  00000-0  63701-4 0  9991
2 42787  97.3219 122.4910 0013141  33.8092 326.3984 15.24187802149721
SUCHAI                  
1 42788U 17036Z   20064.38988121  .00001190  00000-0  52700-4 0  9997
2 42788  97.3171 121.6113 0012481  42.5238 317.6964 15.23493752149881
SKCUBE                  
1 42789U 17036AA  20064.42569438  .00001078  00000-0  48228-4 0  9994
2 42789  97.3166 121.5291 0012347  42.8296 317.3901 15.23354582149807
VZLUSAT-1               
1 42790U 17036AB  20064.39525351  .00001466  00000-0  62975-4 0  9994
2 42790  97.3187 122.2815 0011815  41.5537 318.6597 15.24176412149849
ROBUSTA-1B              
1 42792U 17036AD  20064.39231781  .00001132  00000-0  50194-4 0  9997
2 42792  97.3167 121.7159 0011954  43.5931 316.6248 15.23538934149827
CICERO 6                
1 42793U 17036AE  20064.40259143  .00000746  00000-0  34668-4 0  9990
2 42793  97.3146 121.2611 0011331  46.0757 314.1413 15.22962887149875
D-SAT                   
1 42794U 17036AF  20064.56593874  .00000294  00000-0  30838-4 0  9993
2 42794  97.5076 102.3394 0126072 355.8104   4.2048 14.91228830147062
CORVUS BC2              
1 42846U 17042X   20064.48897381  .00000230  00000-0  27909-4 0  9994
2 42846  97.5382 312.6861 0008044 268.8118  91.2180 14.92066644143750
CORVUS BC1              
1 42847U 17042Y   20064.22353987  .00000245  00000-0  29352-4 0  9996
2 42847  97.5384 312.5827 0007683 268.9974  91.0365 14.92167521143718
MIRATA                  
1 43015U 17073C   20064.44435655  .00001361  00000-0  10996-3 0  9998
2 43015  97.7222 340.6430 0254817  31.3563 330.2562 14.79445706123691
MAKERSAT 0              
1 43016U 17073D   20064.24136223  .00000952  00000-0  78542-4 0  9993
2 43016  97.7258 340.6438 0257371  32.8311 328.8598 14.79068795123651
ASTERIA                 
1 43020U 98067NH  20064.34405497  .00089324  14103-4  28731-3 0  9990
2 43020  51.6414  58.8385 0002701  73.8866 286.2437 15.90960759130857
DELLINGR (RBLE)         
1 43021U 98067NJ  20064.36772564  .00009896  00000-0  92747-4 0  9997
2 43021  51.6364  95.8064 0002563  28.2585 331.8550 15.67931983130365
AEROCUBE 7B (OCSD B)    
1 43042U 17071F   20064.46177058  .00003326  00000-0  83979-4 0  9993
2 43042  51.6366 221.4671 0004588  28.7966 331.3272 15.42831395126166
AEROCUBE 7C (OCSD C)    
1 43043U 17071G   20064.52823700  .00003215  00000-0  81548-4 0  9990
2 43043  51.6366 221.1756 0004872  32.7007 327.4280 15.42809075126148
CHEFSAT                 
1 43044U 17071H   20064.42913107  .00005648  00000-0  11912-3 0  9990
2 43044  51.6372 210.2387 0004434  33.8982 326.2288 15.46817937126283
ASGARDIA 1              
1 43049U 17071N   20064.52589474  .00003099  00000-0  78720-4 0  9991
2 43049  51.6376 220.4700 0002666  52.5082 307.6146 15.42892747126158
ISARA                   
1 43050U 17071P   20064.41516846  .00006519  00000-0  13976-3 0  9995
2 43050  51.6353 212.3020 0002365  50.3683 309.7513 15.46037548126255
PROPCUBE 2 (FAUNA)      
1 43052U 17071R   20064.47622963  .00003384  00000-0  84008-4 0  9993
2 43052  51.6370 219.4075 0002501  50.5499 309.5708 15.43285819126159
CORVUS BC3              
1 43118U 18004H   20064.45505896  .00000681  00000-0  31747-4 0  9995
2 43118  97.4552 135.5385 0011823  65.5527 294.6941 15.23203216119018
MICROMAS-2A             
1 43131U 18004W   20064.47332135  .00001648  00000-0  69044-4 0  9991
2 43131  97.4591 136.9360 0010630  65.9516 294.2833 15.24914919119095
SPACEBEE-4              
1 43139U 18004AE  20064.32829012  .00002286  00000-0  91567-4 0  9992
2 43139  97.4620 137.7340 0009966  68.4760 291.7540 15.26050509119121
SPACEBEE-3              
1 43140U 18004AF  20064.46125422  .00002869  00000-0  11159-3 0  9998
2 43140  97.4632 138.3983 0009634  67.6124 292.6134 15.26820403119175
SPACEBEE-2              
1 43141U 18004AG  20064.32935049  .00003040  00000-0  11713-3 0  9996
2 43141  97.4644 138.4620 0009598  67.6335 292.5920 15.27083869119160
SPACEBEE-1              
1 43142U 18004AH  20064.45076471  .00003262  00000-0  12436-3 0  9995
2 43142  97.4647 138.7863 0009558  67.2122 293.0126 15.27385056119181
CICERO 7                
1 43143U 18004AJ  20064.34724937  .00001523  00000-0  63930-4 0  9995
2 43143  97.4572 137.0110 0008984  75.0907 285.1325 15.24990258119092
GOMX-4B                 
1 43196U 18015E   20064.57427002  .00000670  00000-0  30331-4 0  9994
2 43196  97.4202 194.0312 0020268 111.6810 248.6586 15.24162473115927
GOMX-4A                 
1 43197U 18015F   20064.61046475  .00000580  00000-0  26527-4 0  9993
2 43197  97.4195 194.1254 0020823 112.2812 304.0393 15.24352221115948
1KUNS-PF                
1 43466U 98067NP  20064.43144625  .00053488  00000-0  25855-3 0  9990
2 43466  51.6309  84.0073 0003388  52.6276 307.5035 15.81995751103784
UBAKUSAT                
1 43467U 98067NQ  20064.45666454  .00018530  00000-0  15369-3 0  9990
2 43467  51.6345 100.0725 0002401  11.8547 348.2506 15.70262487103585
